NORAD_CAT_ID,OBJECT_NAME,OBJECT_TYPE,EPOCH,MEAN_MOTION,ECCENTRICITY,INCLINATION,RA_OF_ASC_NODE,ARG_OF_PERICENTER,MEAN_ANOMALY,BSTAR,MEAN_MOTION_DOT,MEAN_MOTION_DDOT,TLE_LINE0,TLE_LINE1,TLE_LINE2,SEMIMAJOR_AXIS,PERIOD,APOGEE,PERIGEE,DECAYED
49432.0,STARLINK-3158,PAYLOAD,2022-02-21 22:00:00,15.08856361,0.000192,53.2186,8.6151,51.9158,165.6694,-0.0018109,-0.00029006,0.0,0 STARLINK-3158,1 49432U 21104AA  22052.91667824 -.00029006  00000-0 -18109-2 0  9994,2 49432  53.2186   8.6151 0001920  51.9158 165.6694 15.08856361 16918,6917.83,95.437,541.024,538.367,0.0
49432.0,STARLINK-3158,PAYLOAD,2022-02-22 14:00:01,15.088545000000002,0.0001909,53.2187,5.6227,46.67,194.1042,-0.0036865,-0.00058507,0.0,0 STARLINK-3158,1 49432U 21104AA  22053.58334491 -.00058507  00000-0 -36865-2 0  9996,2 49432  53.2187   5.6227 0001909  46.6700 194.1042 15.08854500  3611,6917.8359999999975,95.437,541.0219999999998,538.38,0.0
49432.0,STARLINK-3158,PAYLOAD,2022-02-22 22:00:00,15.08833125,0.0001883,53.2188,4.1262,50.2957,202.0659,0.00013531,1.866e-05,0.0,0 STARLINK-3158,1 49432U 21104AA  22053.91667824  .00001866  00000-0  13531-3 0  9992,2 49432  53.2188   4.1262 0001883  50.2957 202.0659 15.08833125 17068,6917.901,95.438,541.069,538.464,0.0
49432.0,STARLINK-3158,PAYLOAD,2022-02-23 14:00:01,15.08848914,0.0001906,53.2189,1.1337,47.5313,228.0057,-0.0010386,-0.00016784,0.0,0 STARLINK-3158,1 49432U 21104AA  22054.58334491 -.00016784  00000-0 -10386-2 0  9998,2 49432  53.2189   1.1337 0001906  47.5313 228.0057 15.08848914  3629,6917.853,95.437,541.0369999999998,538.4,0.0
49432.0,STARLINK-3158,PAYLOAD,2022-02-23 22:00:00,15.08837194,0.0002086,53.2175,359.6273,45.2323,241.8137,6.4233e-05,7.34e-06,0.0,0 STARLINK-3158,1 49432U 21104AA  22054.91667824  .00000734  00000-0  64233-4 0  9992,2 49432  53.2175 359.6273 0002086  45.2323 241.8137 15.08837194 17210,6917.889,95.438,541.197,538.311,0.0
49432.0,STARLINK-3158,PAYLOAD,2022-02-24 06:00:00,15.08834977,0.0002101,53.2189,358.1424,46.1963,252.5455,0.0020493,0.00032473,0.0,0 STARLINK-3158,1 49432U 21104AA  22055.25001157  .00032473  00000-0  20493-2 0  9994,2 49432  53.2189 358.1424 0002101  46.1963 252.5455 15.08834977 17268,6917.896,95.438,541.214,538.307,0.0
49432.0,STARLINK-3158,PAYLOAD,2022-02-24 14:00:01,15.08852102,0.0001888,53.2187,356.6445,48.6691,261.689,-0.0018245,-0.00029218,0.0,0 STARLINK-3158,1 49432U 21104AA  22055.58334491 -.00029218  00000-0 -18245-2 0  9997,2 49432  53.2187 356.6445 0001888  48.6691 261.6890 15.08852102  3616,6917.843000000003,95.437,541.014,538.4019999999998,0.0
49432.0,STARLINK-3158,PAYLOAD,2022-02-24 22:00:00,15.08856155,0.0001836,53.2189,355.1482,50.8122,271.1395,-0.00076768,-0.00012491,0.0,0 STARLINK-3158,1 49432U 21104AA  22055.91667824 -.00012491  00000-0 -76768-3 0  9993,2 49432  53.2189 355.1482 0001836  50.8122 271.1395 15.08856155  3607,6917.831,95.437,540.966,538.4259999999998,0.0
49432.0,STARLINK-3158,PAYLOAD,2022-02-25 06:00:00,15.08828068,0.0001976,53.2186,353.6533,44.6102,288.9491,-3.5325e-05,-8.5e-06,0.0,0 STARLINK-3158,1 49432U 21104AA  22056.25001157 -.00000850  00000-0 -35325-4 0  9993,2 49432  53.2186 353.6533 0001976  44.6102 288.9491 15.08828068 17417,6917.917,95.438,541.149,538.415,0.0
49432.0,STARLINK-3158,PAYLOAD,2022-02-25 14:00:01,15.08822152,0.0001799,53.2184,352.1554,48.4842,296.6559,-0.00051707,-8.504e-05,0.0,0 STARLINK-3158,1 49432U 21104AA  22056.58334491 -.00008504  00000-0 -51707-3 0  9994,2 49432  53.2184 352.1554 0001799  48.4842 296.6559 15.08822152  3614,6917.935,95.439,541.044,538.555,0.0
49432.0,STARLINK-3158,PAYLOAD,2022-02-25 22:00:00,15.08827219,0.0001896,53.2186,350.6594,52.0975,304.6096,-0.0023677,-0.0003776,0.0,0 STARLINK-3158,1 49432U 21104AA  22056.91667824 -.00037760  00000-0 -23677-2 0  9990,2 49432  53.2186 350.6594 0001896  52.0975 304.6096 15.08827219  3580,6917.919,95.438,541.096,538.4730000000002,0.0
49432.0,STARLINK-3158,PAYLOAD,2022-02-26 06:00:00,15.0878294,0.000207,53.2182,349.1645,48.2029,320.0717,0.0029592,0.00047049,0.0,0 STARLINK-3158,1 49432U 21104AA  22057.25001157  .00047049  00000-0  29592-2 0  9990,2 49432  53.2182 349.1645 0002070  48.2029 320.0717 15.08782940 17564,6918.055,95.441,541.352,538.488,0.0
49432.0,STARLINK-3158,PAYLOAD,2022-02-26 14:00:01,15.08798876,0.0001928,53.2181,347.6664,53.003,326.8233,0.001239,0.00019464,0.0,0 STARLINK-3158,1 49432U 21104AA  22057.58334491  .00019464  00000-0  12390-2 0  9994,2 49432  53.2181 347.6664 0001928  53.0030 326.8233 15.08798876  3617,6918.005999999999,95.44,541.205,538.5369999999998,0.0
49432.0,STARLINK-3158,PAYLOAD,2022-02-26 22:00:00,15.08827453,0.0002021,53.2181,346.1678,54.1393,337.2289,-0.0020391,-0.00032584,0.0,0 STARLINK-3158,1 49432U 21104AA  22057.91667824 -.00032584  00000-0 -20391-2 0  9990,2 49432  53.2181 346.1678 0002021  54.1393 337.2289 15.08827453 17677,6917.919,95.438,541.182,538.386,0.0
49432.0,STARLINK-3158,PAYLOAD,2022-02-27 14:00:01,15.0880658,0.0002007,53.2179,343.1776,54.4472,0.0669,0.0015962,0.00025184,0.0,0 STARLINK-3158,1 49432U 21104AA  22058.58334491  .00025184  00000-0  15962-2 0  9999,2 49432  53.2179 343.1776 0002007  54.4472   0.0669 15.08806580 17771,6917.983,95.44,541.236,538.4590000000002,0.0
49432.0,STARLINK-3158,PAYLOAD,2022-02-27 22:00:00,15.08845213,0.0002116,53.2181,341.682,55.3832,10.6946,-0.0016733,-0.00026825,0.0,0 STARLINK-3158,1 49432U 21104AA  22058.91667824 -.00026825  00000-0 -16733-2 0  9997,2 49432  53.2181 341.6820 0002116  55.3832  10.6946 15.08845213  3617,6917.864000000001,95.437,541.193,538.266,0.0
49432.0,STARLINK-3158,PAYLOAD,2022-02-28 14:00:01,15.08912945,0.000214,53.2177,338.6791,54.2184,35.0812,-0.0075333,-0.00118456,0.0,0 STARLINK-3158,1 49432U 21104AA  22059.58334491 -.00118456  00000-0 -75333-2 0  9995,2 49432  53.2177 338.6791 0002140  54.2184  35.0812 15.08912945  3610,6917.656999999997,95.433,541.003,538.0419999999998,0.0
49432.0,STARLINK-3158,PAYLOAD,2022-02-28 22:00:00,15.08868581,0.0002238,53.2183,337.1931,56.1217,44.7452,-0.0016213,-0.0002602,0.0,0 STARLINK-3158,1 49432U 21104AA  22059.91667824 -.00026020  00000-0 -16213-2 0  9998,2 49432  53.2183 337.1931 0002238  56.1217  44.7452 15.08868581 17970,6917.793000000002,95.436,541.206,538.11,0.0
49432.0,STARLINK-3158,PAYLOAD,2022-03-01 14:00:01,15.08859598,0.0002165,53.2184,334.1998,56.2027,67.9118,0.00047818,7.334e-05,0.0,0 STARLINK-3158,1 49432U 21104AA  22060.58334491  .00007334  00000-0  47818-3 0  9995,2 49432  53.2184 334.1998 0002165  56.2027  67.9118 15.08859598 18076,6917.82,95.436,541.183,538.188,0.0
49432.0,STARLINK-3158,PAYLOAD,2022-03-01 22:00:01,15.08871784,0.0002227,53.2186,332.7042,55.2934,80.5065,-0.0025861,-0.00041248,0.0,0 STARLINK-3158,1 49432U 21104AA  22060.91668981 -.00041248  00000-0 -25861-2 0  9993,2 49432  53.2186 332.7042 0002227  55.2934  80.5065 15.08871784  3614,6917.783,95.436,541.189,538.1080000000002,0.0
49432.0,STARLINK-3158,PAYLOAD,2022-03-02 06:00:00,15.08827481,0.0002265,53.2183,331.2088,50.0518,97.3057,0.0011349,0.00017814,0.0,0 STARLINK-3158,1 49432U 21104AA  22061.25001157  .00017814  00000-0  11349-2 0  9993,2 49432  53.2183 331.2088 0002265  50.0518  97.3057 15.08827481 18177,6917.919,95.438,541.351,538.217,0.0
49432.0,STARLINK-3158,PAYLOAD,2022-03-02 14:00:01,15.08812914,0.0002073,53.2185,329.7109,54.7349,104.2132,0.0027416,0.00043583,0.0,0 STARLINK-3158,1 49432U 21104AA  22061.58334491  .00043583  00000-0  27416-2 0  9993,2 49432  53.2185 329.7109 0002073  54.7349 104.2132 15.08812914  3570,6917.9630000000025,95.439,541.262,538.394,0.0
49432.0,STARLINK-3158,PAYLOAD,2022-03-02 22:00:00,15.08860475,0.0002178,53.2187,328.2156,54.2171,116.3081,-0.0025088,-0.00040018,0.0,0 STARLINK-3158,1 49432U 21104AA  22061.91667824 -.00040018  00000-0 -25088-2 0  9994,2 49432  53.2187 328.2156 0002178  54.2171 116.3081 15.08860475  3608,6917.818,95.436,541.19,538.1759999999998,0.0
49432.0,STARLINK-3158,PAYLOAD,2022-03-03 06:00:00,15.0882256,0.0002212,53.2183,326.72,49.6391,132.4899,0.00037309,5.652e-05,0.0,0 STARLINK-3158,1 49432U 21104AA  22062.25001157  .00005652  00000-0  37309-3 0  9996,2 49432  53.2183 326.7200 0002212  49.6391 132.4899 15.08822560 18322,6917.934,95.439,541.3290000000002,538.268,0.0
49432.0,STARLINK-3158,PAYLOAD,2022-03-03 14:00:01,15.08802448,0.0002017,53.2184,325.222,54.9791,138.7325,0.0027828,0.00044233,0.0,0 STARLINK-3158,1 49432U 21104AA  22062.58334491  .00044233  00000-0  27828-2 0  9994,2 49432  53.2184 325.2220 0002017  54.9791 138.7325 15.08802448  3594,6917.995,95.44,541.256,538.465,0.0
49432.0,STARLINK-3158,PAYLOAD,2022-03-03 22:00:00,15.08841363,0.0002132,53.2185,323.7270000000001,54.2793,150.9999,-0.0012956,-0.0002085,0.0,0 STARLINK-3158,1 49432U 21104AA  22062.91667824 -.00020850  00000-0 -12956-2 0  9997,2 49432  53.2185 323.7270 0002132  54.2793 150.9999 15.08841363  3598,6917.876,95.437,541.216,538.266,0.0
49432.0,STARLINK-3158,PAYLOAD,2022-03-04 06:00:02,15.08833675,0.0002198,53.2179,322.2311,51.4877,165.4404,0.00071363,0.00011086,0.0,0 STARLINK-3158,1 49432U 21104AA  22063.25002315  .00011086  00000-0  71363-3 0  9990,2 49432  53.2179 322.2311 0002198  51.4877 165.4404 15.08833675 18477,6917.9,95.438,541.285,538.244,0.0
49432.0,STARLINK-3158,PAYLOAD,2022-03-04 14:00:01,15.08820428,0.0002033,53.2178,320.7331,57.6936,170.8367,0.0029177,0.00046429,0.0,0 STARLINK-3158,1 49432U 21104AA  22063.58335648  .00046429  00000-0  29177-2 0  9998,2 49432  53.2178 320.7331 0002033  57.6936 170.8367 15.08820428  3590,6917.94,95.439,541.212,538.399,0.0
49432.0,STARLINK-3158,PAYLOAD,2022-03-04 22:00:00,15.08860817,0.000214,53.2179,319.2382,56.0773,183.9863,-0.0010579,-0.00017095,0.0,0 STARLINK-3158,1 49432U 21104AA  22063.91667824 -.00017095  00000-0 -10579-2 0  9994,2 49432  53.2179 319.2382 0002140  56.0773 183.9863 15.08860817  3593,6917.816999999999,95.436,541.1619999999998,538.201,0.0
